{
  "links" : {
    "next" : "https://api.nasa.gov/neo/rest/v1/feed?start_date=2005-12-09&end_date=2005-12-09&detailed=true&api_key=t0TVs3DtDT2H8Oy2Zy8m2eVrNsAVKAexjcZXUckd",
    "prev" : "https://api.nasa.gov/neo/rest/v1/feed?start_date=2005-12-07&end_date=2005-12-07&detailed=true&api_key=t0TVs3DtDT2H8Oy2Zy8m2eVrNsAVKAexjcZXUckd",
    "self" : "https://api.nasa.gov/neo/rest/v1/feed?start_date=2005-12-08&end_date=2005-12-08&detailed=true&api_key=t0TVs3DtDT2H8Oy2Zy8m2eVrNsAVKAexjcZXUckd"
  },
  "element_count" : 4,
  "near_earth_objects" : {
    "2005-12-08" : [ {
      "links" : {
        "self" : "https://api.nasa.gov/neo/rest/v1/neo/3153530?api_key=t0TVs3DtDT2H8Oy2Zy8m2eVrNsAVKAexjcZXUckd"
      },
      "neo_reference_id" : "3153530",
      "name" : "(2003 HT42)",
      "nasa_jpl_url" : "http://ssd.jpl.nasa.gov/sbdb.cgi?sstr=3153530",
      "absolute_magnitude_h" : 24.8,
      "estimated_diameter" : {
        "kilometers" : {
          "estimated_diameter_min" : 0.0291443905,
          "estimated_diameter_max" : 0.0651688382
        },
        "meters" : {
          "estimated_diameter_min" : 29.1443904535,
          "estimated_diameter_max" : 65.1688382168
        },
        "miles" : {
          "estimated_diameter_min" : 0.018109479,
          "estimated_diameter_max" : 0.0404940262
        },
        "feet" : {
          "estimated_diameter_min" : 95.6180819754,
          "estimated_diameter_max" : 213.8085311752
        }
      },
      "is_potentially_hazardous_asteroid" : false,
      "close_approach_data" : [ {
        "close_approach_date" : "2005-12-08",
        "epoch_date_close_approach" : 1134028800000,
        "relative_velocity" : {
          "kilometers_per_second" : "10.6174145878",
          "kilometers_per_hour" : "38222.6925161927",
          "miles_per_hour" : "23750.0946915198"
        },
        "miss_distance" : {
          "astronomical" : "0.3469566162",
          "lunar" : "134.9661254883",
          "kilometers" : "51903972",
          "miles" : "32251632"
        },
        "orbiting_body" : "Earth"
      } ],
      "orbital_data" : {
        "orbit_id" : "14",
        "orbit_determination_date" : "2017-04-06 09:14:07",
        "orbit_uncertainty" : "6",
        "minimum_orbit_intersection" : ".0133187",
        "jupiter_tisserand_invariant" : "7.149",
        "epoch_osculation" : "2458000.5",
        "eccentricity" : ".2618003732385273",
        "semi_major_axis" : ".8145267445065926",
        "inclination" : "4.881530883173743",
        "ascending_node_longitude" : "38.77825533771854",
        "orbital_period" : "268.5075178657495",
        "perihelion_distance" : ".6012833387820041",
        "perihelion_argument" : "352.3550245814477",
        "aphelion_distance" : "1.027770150231181",
        "perihelion_time" : "2457988.127857502525",
        "mean_anomaly" : "16.58788303021728",
        "mean_motion" : "1.340744582727087",
        "equinox" : "J2000"
      }
    }, {
      "links" : {
        "self" : "https://api.nasa.gov/neo/rest/v1/neo/3477703?api_key=t0TVs3DtDT2H8Oy2Zy8m2eVrNsAVKAexjcZXUckd"
      },
      "neo_reference_id" : "3477703",
      "name" : "(2009 WQ6)",
      "nasa_jpl_url" : "http://ssd.jpl.nasa.gov/sbdb.cgi?sstr=3477703",
      "absolute_magnitude_h" : 29.2,
      "estimated_diameter" : {
        "kilometers" : {
          "estimated_diameter_min" : 0.0038419789,
          "estimated_diameter_max" : 0.008590926
        },
        "meters" : {
          "estimated_diameter_min" : 3.8419789106,
          "estimated_diameter_max" : 8.5909260123
        },
        "miles" : {
          "estimated_diameter_min" : 0.0023872943,
          "estimated_diameter_max" : 0.0053381523
        },
        "feet" : {
          "estimated_diameter_min" : 12.6049180892,
          "estimated_diameter_max" : 28.1854536983
        }
      },
      "is_potentially_hazardous_asteroid" : false,
      "close_approach_data" : [ {
        "close_approach_date" : "2005-12-08",
        "epoch_date_close_approach" : 1134028800000,
        "relative_velocity" : {
          "kilometers_per_second" : "9.280396086",
          "kilometers_per_hour" : "33409.4259095277",
          "miles_per_hour" : "20759.3180047285"
        },
        "miss_distance" : {
          "astronomical" : "0.2020438787",
          "lunar" : "78.5950698853",
          "kilometers" : "30225334",
          "miles" : "18781152"
        },
        "orbiting_body" : "Earth"
      } ],
      "orbital_data" : {
        "orbit_id" : "6",
        "orbit_determination_date" : "2017-04-06 08:59:06",
        "orbit_uncertainty" : "5",
        "minimum_orbit_intersection" : ".00238665",
        "jupiter_tisserand_invariant" : "6.746",
        "epoch_osculation" : "2458000.5",
        "eccentricity" : ".4086228201648052",
        "semi_major_axis" : ".8665600916769487",
        "inclination" : "5.816976919203046",
        "ascending_node_longitude" : "55.601661511252",
        "orbital_period" : "294.6432208416104",
        "perihelion_distance" : ".5124638631736418",
        "perihelion_argument" : "227.3435173668688",
        "aphelion_distance" : "1.220656320180256",
        "perihelion_time" : "2458026.580884335746",
        "mean_anomaly" : "328.1339406552453",
        "mean_motion" : "1.22181667364247",
        "equinox" : "J2000"
      }
    }, {
      "links" : {
        "self" : "https://api.nasa.gov/neo/rest/v1/neo/3624756?api_key=t0TVs3DtDT2H8Oy2Zy8m2eVrNsAVKAexjcZXUckd"
      },
      "neo_reference_id" : "3624756",
      "name" : "(2013 BT18)",
      "nasa_jpl_url" : "http://ssd.jpl.nasa.gov/sbdb.cgi?sstr=3624756",
      "absolute_magnitude_h" : 23.6,
      "estimated_diameter" : {
        "kilometers" : {
          "estimated_diameter_min" : 0.0506471459,
          "estimated_diameter_max" : 0.1132504611
        },
        "meters" : {
          "estimated_diameter_min" : 50.6471458835,
          "estimated_diameter_max" : 113.2504610618
        },
        "miles" : {
          "estimated_diameter_min" : 0.0314706677,
          "estimated_diameter_max" : 0.0703705522
        },
        "feet" : {
          "estimated_diameter_min" : 166.1651821003,
          "estimated_diameter_max" : 371.5566426699
        }
      },
      "is_potentially_hazardous_asteroid" : false,
      "close_approach_data" : [ {
        "close_approach_date" : "2005-12-08",
        "epoch_date_close_approach" : 1134028800000,
        "relative_velocity" : {
          "kilometers_per_second" : "28.9041748722",
          "kilometers_per_hour" : "104055.029539816",
          "miles_per_hour" : "64655.7487715595"
        },
        "miss_distance" : {
          "astronomical" : "0.3909446614",
          "lunar" : "152.0774688721",
          "kilometers" : "58484488",
          "miles" : "36340576"
        },
        "orbiting_body" : "Earth"
      } ],
      "orbital_data" : {
        "orbit_id" : "15",
        "orbit_determination_date" : "2017-04-06 08:47:04",
        "orbit_uncertainty" : "7",
        "minimum_orbit_intersection" : ".014922",
        "jupiter_tisserand_invariant" : "7.365",
        "epoch_osculation" : "2458000.5",
        "eccentricity" : ".5646552024945247",
        "semi_major_axis" : ".7732759382556698",
        "inclination" : "1.843315224552565",
        "ascending_node_longitude" : "161.9306106925883",
        "orbital_period" : "248.3705916047051",
        "perihelion_distance" : ".336641656755771",
        "perihelion_argument" : "117.2056552796791",
        "aphelion_distance" : "1.209910219755569",
        "perihelion_time" : "2457885.794549143006",
        "mean_anomaly" : "166.2594675227862",
        "mean_motion" : "1.449446964208061",
        "equinox" : "J2000"
      }
    }, {
      "links" : {
        "self" : "https://api.nasa.gov/neo/rest/v1/neo/3761353?api_key=t0TVs3DtDT2H8Oy2Zy8m2eVrNsAVKAexjcZXUckd"
      },
      "neo_reference_id" : "3761353",
      "name" : "(2016 UO5)",
      "nasa_jpl_url" : "http://ssd.jpl.nasa.gov/sbdb.cgi?sstr=3761353",
      "absolute_magnitude_h" : 25.8,
      "estimated_diameter" : {
        "kilometers" : {
          "estimated_diameter_min" : 0.0183888672,
          "estimated_diameter_max" : 0.0411187571
        },
        "meters" : {
          "estimated_diameter_min" : 18.388867207,
          "estimated_diameter_max" : 41.1187571041
        },
        "miles" : {
          "estimated_diameter_min" : 0.0114263088,
          "estimated_diameter_max" : 0.0255500032
        },
        "feet" : {
          "estimated_diameter_min" : 60.3309310875,
          "estimated_diameter_max" : 134.9040630575
        }
      },
      "is_potentially_hazardous_asteroid" : false,
      "close_approach_data" : [ {
        "close_approach_date" : "2005-12-08",
        "epoch_date_close_approach" : 1134028800000,
        "relative_velocity" : {
          "kilometers_per_second" : "11.6939514213",
          "kilometers_per_hour" : "42098.2251167844",
          "miles_per_hour" : "26158.1999343708"
        },
        "miss_distance" : {
          "astronomical" : "0.2245440256",
          "lunar" : "87.3476257324",
          "kilometers" : "33591308",
          "miles" : "20872670"
        },
        "orbiting_body" : "Earth"
      } ],
      "orbital_data" : {
        "orbit_id" : "5",
        "orbit_determination_date" : "2017-04-06 08:22:53",
        "orbit_uncertainty" : "7",
        "minimum_orbit_intersection" : ".0691428",
        "jupiter_tisserand_invariant" : "6.601",
        "epoch_osculation" : "2458000.5",
        "eccentricity" : ".1997980549605088",
        "semi_major_axis" : ".8983094943698557",
        "inclination" : "6.67024007308722",
        "ascending_node_longitude" : "208.586060453823",
        "orbital_period" : "310.9835462192987",
        "perihelion_distance" : ".7188290046422005",
        "perihelion_argument" : "1.528153866073131",
        "aphelion_distance" : "1.077789984097511",
        "perihelion_time" : "2458150.956949319410",
        "mean_anomaly" : "185.8284002048394",
        "mean_motion" : "1.157617515063437",
        "equinox" : "J2000"
      }
    } ]
  }
}